IRIDIUM 112             
1 41925U 17003J   25210.73322061  .00000023  00000+0  13071-5 0  9997
2 41925  86.3953 222.9859 0002266  89.3437 270.8019 14.34217637447082
IRIDIUM 111             
1 41926U 17003K   25210.58099612  .00000015  00000+0 -15530-5 0  9998
2 41926  86.3950 223.1127 0002144  91.3352 268.8089 14.34217316447016
IRIDIUM 113             
1 42803U 17039A   25210.77026851  .00000250  00000+0  82090-4 0  9992
2 42803  86.3953  96.9637 0002302  80.8452 279.3004 14.34218573424976
IRIDIUM 123             
1 42804U 17039B   25210.81174579  .00000109  00000+0  31802-4 0  9997
2 42804  86.3997 128.4212 0001885  83.3503 276.7907 14.34217080423744
IRIDIUM 120             
1 42805U 17039C   25210.76392544  .00000040  00000+0  72505-5 0  9996
2 42805  86.3941  96.7906 0002011  92.7139 267.4287 14.34217762424962
IRIDIUM 115             
1 42806U 17039D   25210.38351033  .00000352  00000+0  98696-4 0  9997
2 42806  86.4478  97.0343 0001465  84.0187 276.1181 14.43282893427709
IRIDIUM 118             
1 42807U 17039E   25210.84346039 -.00000028  00000+0 -16934-4 0  9996
2 42807  86.3999 128.4074 0002180  79.3191 280.8250 14.34217325423752
IRIDIUM 117             
1 42808U 17039F   25210.51364451  .00000025  00000+0  20325-5 0  9994
2 42808  86.3998 128.5057 0001902  79.5854 280.5556 14.34217680423720
